satname,norad_id,inclination_deg,eccentricity,mean_motion_rev_per_day,perigee_km,apogee_km,l1,l2
STARLINK-1169,45061,53.0546,0.0001372,15.06397941,546.2677097959595,548.1680271718715,1 45061U 20006T   25271.28219638  .00000692  00000+0  65358-4 0  9997,2 45061  53.0546 295.6958 0001372  98.4089 261.7056 15.06397941311980
STARLINK-1171,45062,53.0547,0.0001482,15.06394361,546.2025014974315,548.2551799326193,1 45062U 20006U   25271.26745471  .00001524  00000+0  12118-3 0  9995,2 45062  53.0547 295.7583 0001482 100.7603 259.3553 15.06394361311986
STARLINK-1133,45064,53.0544,0.0001605,15.06403537,546.0892008602423,548.3122342675797,1 45064U 20006W   25271.28034601  .00003373  00000+0  24523-3 0  9992,2 45064  53.0544 275.7012 0001605  77.5299 282.5869 15.06403537312265
STARLINK-1150,45067,53.0392,0.0001686,16.04647536,260.44785343105286,262.68676172356845,1 45067U 20006Z   25271.29746909  .01015081  55814-3  14834-2 0  9997,2 45067  53.0392 216.4731 0001686 171.3888 188.7172 16.04647536313099
STARLINK-1167,45071,53.0537,0.0001579,15.06413512,546.0766399155673,548.263651912248,1 45071U 20006AD  25271.23980010  .00003823  00000+0  27528-3 0  9997,2 45071  53.0537 275.8859 0001579  87.9141 272.2028 15.06413512312252
STARLINK-1168,45072,53.0547,0.0001477,15.06395336,546.2029763701112,548.2487285567295,1 45072U 20006AE  25270.24828634 -.00000226  00000+0  36944-5 0  9990,2 45072  53.0547 280.3319 0001477 107.5150 252.6000 15.06395336312101
STARLINK-1172,45074,53.0549,0.0001436,15.06385466,546.2616164635674,548.2505893627231,1 45074U 20006AG  25271.18820382  .00002421  00000+0  18142-3 0  9994,2 45074  53.0549 276.1177 0001436  82.4450 277.6703 15.06385466312244
STARLINK-1153,45080,53.054,0.0001433,15.06407037,546.1975912729922,548.1823899885057,1 45080U 20006AN  25271.23242677  .00003204  00000+0  23385-3 0  9997,2 45080  53.0540 275.9198 0001433  80.3111 279.8040 15.06407037312258
STARLINK-1151,45081,53.0546,0.0001448,15.06395498,546.222563485092,548.2281484233763,1 45081U 20006AP  25271.21770343  .00000615  00000+0  60199-4 0  9990,2 45081  53.0546 276.0588 0001448  83.5352 276.5802 15.06395498312255
STARLINK-1190,45083,53.0476,0.000829,15.75253641,338.3369367691912,349.482089888289,1 45083U 20006AR  25271.17172476  .00174475  00000+0  11163-2 0  9991,2 45083  53.0476 245.0915 0008290  60.6531 299.5315 15.75253641312686
STARLINK-1173,45084,53.043,0.0007296,15.86434655,307.40680756058555,317.1694759274196,1 45084U 20006AS  25271.25003472  .00412443  00000+0  15321-2 0  9990,2 45084  53.0430 208.1060 0007296  50.5532 155.9144 15.86434655  6045
STARLINK-1179,45085,53.0364,0.0002538,16.05441101,257.6945343037205,261.0637374943026,1 45085U 20006AT  25270.27860488  .00669216  23099-3  92802-3 0  9999,2 45085  53.0364 202.9231 0002538  95.6559 264.4762 16.05441101313192
STARLINK-1185,45087,53.0544,0.0001453,15.06410396,546.173447362904,548.1859443947269,1 45087U 20006AV  25271.19373452  .00002184  00000+0  16539-3 0  9994,2 45087  53.0544 256.0889 0001453  83.3755 276.7399 15.06410396312531
STARLINK-1183,45088,53.0546,0.0001392,15.0640253,546.2397964236188,548.167811303414,1 45088U 20006AW  25271.21583920  .00001977  00000+0  15156-3 0  9994,2 45088  53.0546 255.9926 0001392  81.1587 278.9559 15.06402530312538
STARLINK-1176,45090,53.0478,0.0003589,15.83966586,316.83247385030245,321.63984830532354,1 45090U 20006AY  25271.19716082  .00357684  00000+0  15073-2 0  9997,2 45090  53.0478 206.2266 0003589  36.9780 323.1489 15.83966586313238
STARLINK-1142,45093,53.0382,0.0005722,15.51803572,407.57518909162536,415.34520412342226,1 45093U 20006BB  25271.13035041  .00140614  00000+0  22790-2 0  9990,2 45093  53.0382 201.5464 0005722  98.3521 261.8136 15.51803572313292
STARLINK-1146,45094,53.0422,0.000439,16.06798325,252.72868057224423,258.55313757641125,1 45094U 20006BC  25269.65442025  .00850397  39217-3  10846-2 0  9990,2 45094  53.0422 207.1690 0004390 116.0021 244.1464 16.06798325313089
STARLINK-1147,45095,53.0395,0.000502,15.96326705,281.27551681299155,287.96492506281356,1 45095U 20006BD  25271.19031319  .00432540  87297-4  10174-2 0  9995,2 45095  53.0395 202.4495 0005020  56.0343 304.1161 15.96326705313281
STARLINK-1152,45096,53.0454,0.0006818,15.21470271,496.71454498801086,506.0954884820303,1 45096U 20006BE  25271.11843043  .00084101  00000+0  36641-2 0  9998,2 45096  53.0454 242.4806 0006818  68.3787 291.7934 15.21470271312714
STARLINK-1184,45098,53.054,0.0001333,15.06401039,546.285225016456,548.1315220930455,1 45098U 20006BG  25271.23059115  .00000221  00000+0  33725-4 0  9995,2 45098  53.0540 255.9258 0001333  98.1691 261.9449 15.06401039312533
STARLINK-1193,45100,53.0537,0.0001321,15.06404781,546.2820682917845,548.1117415094595,1 45100U 20006BJ  25271.22690559  .00004122  00000+0  29540-3 0  9994,2 45100  53.0537 255.9405 0001321  88.1906 271.9234 15.06404781312532
STARLINK-1143,45179,53.0561,0.000326,15.349273,458.9068390276716,463.36604531196645,1 45179U 20012B   25270.59420841  .00109799  00000+0  31597-2 0  9991,2 45179  53.0561  29.9972 0003260 241.2601 118.8073 15.34927300310661
STARLINK-1202,45183,53.0552,0.000125,15.06423136,546.2749906317058,548.0063100442903,1 45183U 20012F   25270.82512493  .00006240  00000+0  43717-3 0  9992,2 45183  53.0552  57.7457 0001250  93.8406 266.2726 15.06423136310293
STARLINK-1216,45185,53.0551,0.0001232,15.06413444,546.3171564549539,548.0235521870582,1 45185U 20012H   25270.81775381  .00005525  00000+0  38934-3 0  9990,2 45185  53.0551  57.7774 0001232  88.1203 271.9927 15.06413444310239
STARLINK-1225,45187,53.0549,0.000122,15.06408755,546.3398360037045,548.029614504665,1 45187U 20012K   25270.63714252  .00002955  00000+0  21717-3 0  9997,2 45187  53.0549  58.5899 0001220  76.2038 283.9087 15.06408755310257
STARLINK-1230,45189,53.0561,0.0001448,15.06420427,546.1461714267807,548.1517342387197,1 45189U 20012M   25270.64084019 -.00001102  00000+0 -55064-4 0  9999,2 45189  53.0561  58.5736 0001448 105.0623 255.0526 15.06420427307485
STARLINK-1234,45190,53.0567,0.0001208,15.0641438,546.3309088781025,548.004062441837,1 45190U 20012N   25270.32753018  .00012009  00000+0  82339-3 0  9998,2 45190  53.0567  19.9785 0001208  91.5477 268.5650 15.06414380310671
STARLINK-1240,45194,53.0363,0.0006547,16.17631985,221.6653862558851,230.31282898120025,1 45194U 20012S   25271.52738911  .01447321  17482-2  90109-3 0  9999,2 45194  53.0363 352.7120 0006547   1.5717 358.5339 16.17631985311152
STARLINK-1269,45197,53.0553,0.0001283,15.0639831,546.3282146651882,548.105260434244,1 45197U 20012V   25270.65190288  .00002017  00000+0  15426-3 0  9996,2 45197  53.0553  58.5267 0001283  76.8685 283.2448 15.06398310310232
STARLINK-1154,45198,53.0552,0.0001324,15.06438141,546.1777630607066,548.0115644052639,1 45198U 20012W   25270.77536139  .00008770  00000+0  60627-3 0  9994,2 45198  53.0552  37.9691 0001324  92.7078 267.4063 15.06438141310507
STARLINK-1199,45201,53.056,0.0001347,15.06403239,546.2687877739863,548.1344740011482,1 45201U 20012Z   25270.52103322  .00001722  00000+0  13447-3 0  9994,2 45201  53.0560  39.1108 0001347  91.9596 268.1548 15.06403239310527
STARLINK-1208,45205,53.0356,0.000242,16.12725648,237.77521654542943,240.97809315437644,1 45205U 20012AD  25271.56425052  .01030685  67477-3  89594-3 0  9992,2 45205  53.0356 334.9633 0002420  20.7846 339.3287 16.12725648311536
STARLINK-1209,45206,53.0556,0.0001373,15.06410738,546.2278018718971,548.1294935487585,1 45206U 20012AE  25271.26007932  .00005312  00000+0  37511-3 0  9998,2 45206  53.0556  15.7985 0001373  77.4380 282.6763 15.06410738309967
STARLINK-1210,45207,53.029,0.0012377,15.48311809,413.2482124108428,430.08044061449164,1 45207U 20012AF  25270.50841981  .00106070  00000+0  19511-2 0  9997,2 45207  53.0290 350.1630 0012377 288.6323  71.3339 15.48311809311213
STARLINK-1231,45212,53.0543,0.0002155,15.09513176,536.1961639851861,539.1768839240103,1 45212U 20012AL  25270.63828524  .00048255  00000+0  29738-2 0  9997,2 45212  53.0543  37.9960 0002155 218.6396 141.4440 15.09513176310503
STARLINK-1271,45217,53.0565,0.0001392,15.06432976,546.1464986402943,548.0744875423707,1 45217U 20012AR  25270.63898518  .00011252  00000+0  77237-3 0  9997,2 45217  53.0565  38.5816 0001392  78.9088 281.2057 15.06432976310542
STARLINK-1191,45222,53.0571,0.0001573,15.06416189,546.0725919057832,548.2512909527559,1 45222U 20012AW  25270.51550829  .00005682  00000+0  39984-3 0  9997,2 45222  53.0571  19.1359 0001573  92.1630 267.9539 15.06416189310807
STARLINK-1212,45223,53.0568,0.0001384,15.06411658,546.2173647823583,548.1342913731696,1 45223U 20012AX  25270.60036218  .00007110  00000+0  49560-3 0  9998,2 45223  53.0568  19.4089 0001384  91.6499 268.4649 15.06411658310819
STARLINK-1215,45225,53.0549,7.61e-05,15.0640658,546.6643737688028,547.7184087499536,1 45225U 20012AZ  25270.62241063  .00011100  00000+0  76277-3 0  9997,2 45225  53.0549  18.6552 0000761  66.8529 293.2540 15.06406580310771
STARLINK-1217,45226,53.0429,0.0001626,15.92647395,293.79270933031785,295.96277372426266,1 45226U 20012BA  25271.25003472  .00310959  47895-4  89402-3 0  9994,2 45226  53.0429 322.5393 0001626 346.0958  27.3694 15.92647395  5996
STARLINK-1221,45227,53.0684,0.0002705,15.3534054,458.05949280112054,461.7588757868234,1 45227U 20012BB  25271.13691792  .00021102  00000+0  61525-3 0  9997,2 45227  53.0684 316.0953 0002705 207.9127 152.1730 15.35340540311685
STARLINK-1222,45228,53.0558,0.0001557,15.06386643,546.174212377553,548.3307786664591,1 45228U 20012BC  25270.32385515  .00013887  00000+0  94966-3 0  9997,2 45228  53.0558  19.9952 0001557  75.9853 284.1309 15.06386643310664
STARLINK-1226,45229,53.0565,0.0002004,15.06392527,545.8466172607286,548.622306142578,1 45229U 20012BD  25271.28220329  .00000374  00000+0  44038-4 0  9998,2 45229  53.0565  15.6934 0002004  74.1870 285.9340 15.06392527310813
